{"type": "FeatureCollection", "features": [ {"type": "Feature", "properties": {"norad_id": 30942, "name": "FENGYUN 1C DEB", "group": "fengyun-1c-debris", "lat": 2.651863389067615, "lon": -13.062373942038894, "alt_km": 855.4764585083094, "timestamp": "2025-12-15T04:01:20.731324+00:00", "meta": {"OBJECT_NAME": "FENGYUN 1C DEB", "OBJECT_ID": "1999-025BAG", "EPOCH": "2025-12-13T18:52:12.381888", "MEAN_MOTION": 14.14839158, "ECCENTRICITY": 0.01380178, "INCLINATION": 98.6797, "RA_OF_ASC_NODE": 345.9993, "ARG_OF_PERICENTER": 103.3294, "MEAN_ANOMALY": 69.2087, "EPHEMERIS_TYPE": 0, "CLASSIFICATION_TYPE": "U", "NORAD_CAT_ID": 30942, "ELEMENT_SET_NO": 999, "REV_AT_EPOCH": 96659, "BSTAR": 0.000301176, "MEAN_MOTION_DOT": 5.96e-06, "MEAN_MOTION_DDOT": 0}, "tle": {"line1": "1 30942U 99025BAG 25347.78625442  .00000596  00000+0  30118-3 0  9997", "line2": "2 30942  98.6797 345.9993 0138017 103.3294  69.2087 14.14839158966591"}}, "geometry": {"type": "Point", "coordinates": [-13.062373942038894, 2.651863389067615]}}, {"type": "Feature", "properties": {"norad_id": 30943, "name": "FENGYUN 1C DEB", "group": "fengyun-1c-debris", "lat": -70.14469884892337, "lon": 157.61930497923507, "alt_km": 921.4256764385773, "timestamp": "2025-12-15T04:01:20.731333+00:00", "meta": {"OBJECT_NAME": "FENGYUN 1C DEB", "OBJECT_ID": "1999-025BAH", "EPOCH": "2025-12-14T06:18:37.745568", "MEAN_MOTION": 14.04489472, "ECCENTRICITY": 0.00507848, "INCLINATION": 98.7972, "RA_OF_ASC_NODE": 2.1361, "ARG_OF_PERICENTER": 61.5359, "MEAN_ANOMALY": 299.0911, "EPHEMERIS_TYPE": 0, "CLASSIFICATION_TYPE": "U", "NORAD_CAT_ID": 30943, "ELEMENT_SET_NO": 999, "REV_AT_EPOCH": 95763, "BSTAR": 0.00051184755, "MEAN_MOTION_DOT": 7.83e-06, "MEAN_MOTION_DDOT": 0}, "tle": {"line1": "1 30943U 99025BAH 25348.26293687  .00000783  00000+0  51185-3 0  9999", "line2": "2 30943  98.7972   2.1361 0050784  61.5359 299.0911 14.04489472957633"}}, "geometry": {"type": "Point", "coordinates": [157.61930497923507, -70.14469884892337]}}, {"type": "Feature", "properties": {"norad_id": 30944, "name": "FENGYUN 1C DEB", "group": "fengyun-1c-debris", "lat": 45.592051303632836, "lon": -125.84925069391385, "alt_km": 632.189248330661, "timestamp": "2025-12-15T04:01:20.731344+00:00", "meta": {"OBJECT_NAME": "FENGYUN 1C DEB", "OBJECT_ID": "1999-025BAJ", "EPOCH": "2025-12-13T22:27:44.092800", "MEAN_MOTION": 14.52445808, "ECCENTRICITY": 0.01493247, "INCLINATION": 98.8504, "RA_OF_ASC_NODE": 43.6995, "ARG_OF_PERICENTER": 97.0641, "MEAN_ANOMALY": 78.997, "EPHEMERIS_TYPE": 0, "CLASSIFICATION_TYPE": "U", "NORAD_CAT_ID": 30944, "ELEMENT_SET_NO": 999, "REV_AT_EPOCH": 99093, "BSTAR": 0.00020804618, "MEAN_MOTION_DOT": 9.25e-06, "MEAN_MOTION_DDOT": 0}, "tle": {"line1": "1 30944U 99025BAJ 25347.93592700  .00000925  00000+0  20805-3 0  9994", "line2": "2 30944  98.8504  43.6995 0149324  97.0641  78.9970 14.52445808990933"}}, "geometry": {"type": "Point", "coordinates": [-125.84925069391385, 45.592051303632836]}}, {"type": "Feature", "properties": {"norad_id": 30945, "name": "FENGYUN 1C DEB", "group": "fengyun-1c-debris", "lat": 44.876656568688055, "lon": -11.462755984167469, "alt_km": 767.4229902016696, "timestamp": "2025-12-15T04:01:20.731354+00:00", "meta": {"OBJECT_NAME": "FENGYUN 1C DEB", "OBJECT_ID": "1999-025BAK", "EPOCH": "2025-12-12T07:01:21.161856", "MEAN_MOTION": 14.29708162, "ECCENTRICITY": 0.00306042, "INCLINATION": 99.3881, "RA_OF_ASC_NODE": 354.9223, "ARG_OF_PERICENTER": 39.479, "MEAN_ANOMALY": 336.7453, "EPHEMERIS_TYPE": 0, "CLASSIFICATION_TYPE": "U", "NORAD_CAT_ID": 30945, "ELEMENT_SET_NO": 999, "REV_AT_EPOCH": 96431, "BSTAR": 0.0027151014, "MEAN_MOTION_DOT": 6.956e-05, "MEAN_MOTION_DDOT": 0}, "tle": {"line1": "1 30945U 99025BAK 25346.29260604  .00006956  00000+0  27151-2 0  9998", "line2": "2 30945  99.3881 354.9223 0030604  39.4790 336.7453 14.29708162964318"}}, "geometry": {"type": "Point", "coordinates": [-11.462755984167469, 44.876656568688055]}}, {"type": "Feature", "properties": {"norad_id": 30946, "name": "FENGYUN 1C DEB", "group": "fengyun-1c-debris", "lat": 18.801064518598217, "lon": -72.36937040930496, "alt_km": 674.0389104729638, "timestamp": "2025-12-15T04:01:20.731364+00:00", "meta": {"OBJECT_NAME": "FENGYUN 1C DEB", "OBJECT_ID": "1999-025BAL", "EPOCH": "2025-12-13T06:39:25.301952", "MEAN_MOTION": 14.48155073, "ECCENTRICITY": 0.00894141, "INCLINATION": 99.0394, "RA_OF_ASC_NODE": 102.5032, "ARG_OF_PERICENTER": 191.3313, "MEAN_ANOMALY": 201.098, "EPHEMERIS_TYPE": 0, "CLASSIFICATION_TYPE": "U", "NORAD_CAT_ID": 30946, "ELEMENT_SET_NO": 999, "REV_AT_EPOCH": 98359, "BSTAR": 0.0013371322, "MEAN_MOTION_DOT": 5.189e-05, "MEAN_MOTION_DDOT": 0}, "tle": {"line1": "1 30946U 99025BAL 25347.27737618  .00005189  00000+0  13371-2 0  9998", "line2": "2 30946  99.0394 102.5032 0089414 191.3313 201.0980 14.48155073983590"}}, "geometry": {"type": "Point", "coordinates": [-72.36937040930496, 18.801064518598217]}}, {"type": "Feature", "properties": {"norad_id": 30947, "name": "FENGYUN 1C DEB", "group": "fengyun-1c-debris", "lat": 33.9176461540139, "lon": 64.85056027363575, "alt_km": 768.0103805319231, "timestamp": "2025-12-15T04:01:20.731374+00:00", "meta": {"OBJECT_NAME": "FENGYUN 1C DEB", "OBJECT_ID": "1999-025BAM", "EPOCH": "2025-12-14T03:57:35.637984", "MEAN_MOTION": 14.3804503, "ECCENTRICITY": 0.00957683, "INCLINATION": 98.8085, "RA_OF_ASC_NODE": 237.838, "ARG_OF_PERICENTER": 243.4408, "MEAN_ANOMALY": 115.6938, "EPHEMERIS_TYPE": 0, "CLASSIFICATION_TYPE": "U", "NORAD_CAT_ID": 30947, "ELEMENT_SET_NO": 999, "REV_AT_EPOCH": 98513, "BSTAR": 0.00039672719, "MEAN_MOTION_DOT": 1.217e-05, "MEAN_MOTION_DDOT": 0}, "tle": {"line1": "1 30947U 99025BAM 25348.16499581  .00001217  00000+0  39673-3 0  9994", "line2": "2 30947  98.8085 237.8380 0095768 243.4408 115.6938 14.38045030985131"}}, "geometry": {"type": "Point", "coordinates": [64.85056027363575, 33.9176461540139]}}, {"type": "Feature", "properties": {"norad_id": 30949, "name": "FENGYUN 1C DEB", "group": "fengyun-1c-debris", "lat": -43.05934428155878, "lon": 155.22941955013798, "alt_km": 835.6024495281308, "timestamp": "2025-12-15T04:01:20.731384+00:00", "meta": {"OBJECT_NAME": "FENGYUN 1C DEB", "OBJECT_ID": "1999-025BAP", "EPOCH": "2025-12-12T22:27:07.898112", "MEAN_MOTION": 14.14048468, "ECCENTRICITY": 0.01163751, "INCLINATION": 98.6979, "RA_OF_ASC_NODE": 341.2809, "ARG_OF_PERICENTER": 309.2756, "MEAN_ANOMALY": 79.3493, "EPHEMERIS_TYPE": 0, "CLASSIFICATION_TYPE": "U", "NORAD_CAT_ID": 30949, "ELEMENT_SET_NO": 999, "REV_AT_EPOCH": 96519, "BSTAR": 0.00038091832, "MEAN_MOTION_DOT": 7.29e-06, "MEAN_MOTION_DDOT": 0}, "tle": {"line1": "1 30949U 99025BAP 25346.93550808  .00000729  00000+0  38092-3 0  9990", "line2": "2 30949  98.6979 341.2809 0116375 309.2756  79.3493 14.14048468965192"}}, "geometry": {"type": "Point", "coordinates": [155.22941955013798, -43.05934428155878]}}, {"type": "Feature", "properties": {"norad_id": 30954, "name": "FENGYUN 1C DEB", "group": "fengyun-1c-debris", "lat": -78.64620223896667, "lon": 139.01736257886142, "alt_km": 859.8846221235481, "timestamp": "2025-12-15T04:01:20.731394+00:00", "meta": {"OBJECT_NAME": "FENGYUN 1C DEB", "OBJECT_ID": "1999-025BAU", "EPOCH": "2025-12-13T13:27:41.332320", "MEAN_MOTION": 14.14938562, "ECCENTRICITY": 0.01288279, "INCLINATION": 98.713, "RA_OF_ASC_NODE": 87.6556, "ARG_OF_PERICENTER": 184.9499, "MEAN_ANOMALY": 191.2536, "EPHEMERIS_TYPE": 0, "CLASSIFICATION_TYPE": "U", "NORAD_CAT_ID": 30954, "ELEMENT_SET_NO": 999, "REV_AT_EPOCH": 96399, "BSTAR": 0.0016912953, "MEAN_MOTION_DOT": 3.501e-05, "MEAN_MOTION_DDOT": 0}, "tle": {"line1": "1 30954U 99025BAU 25347.56089505  .00003501  00000+0  16913-2 0  9995", "line2": "2 30954  98.7130  87.6556 0128827 184.9499 191.2536 14.14938562963996"}}, "geometry": {"type": "Point", "coordinates": [139.01736257886142, -78.64620223896667]}}, {"type": "Feature", "properties": {"norad_id": 30956, "name": "FENGYUN 1C DEB", "group": "fengyun-1c-debris", "lat": -80.20242701903348, "lon": 139.88845428037857, "alt_km": 840.1689766250083, "timestamp": "2025-12-15T04:01:20.731405+00:00", "meta": {"OBJECT_NAME": "FENGYUN 1C DEB", "OBJECT_ID": "1999-025BAW", "EPOCH": "2025-12-14T01:33:05.626944", "MEAN_MOTION": 14.14213595, "ECCENTRICITY": 0.00492109, "INCLINATION": 98.7606, "RA_OF_ASC_NODE": 22.0545, "ARG_OF_PERICENTER": 339.0566, "MEAN_ANOMALY": 74.8854, "EPHEMERIS_TYPE": 0, "CLASSIFICATION_TYPE": "U", "NORAD_CAT_ID": 30956, "ELEMENT_SET_NO": 999, "REV_AT_EPOCH": 96326, "BSTAR": 0.0011372923, "MEAN_MOTION_DOT": 2.151e-05, "MEAN_MOTION_DDOT": 0}, "tle": {"line1": "1 30956U 99025BAW 25348.06464846  .00002151  00000+0  11373-2 0  9993", "line2": "2 30956  98.7606  22.0545 0049210 339.0566  74.8854 14.14213595963264"}}, "geometry": {"type": "Point", "coordinates": [139.88845428037857, -80.20242701903348]}}, {"type": "Feature", "properties": {"norad_id": 30960, "name": "FENGYUN 1C DEB", "group": "fengyun-1c-debris", "lat": -14.602838048394336, "lon": -76.98102720168644, "alt_km": 568.796126399181, "timestamp": "2025-12-15T04:01:20.731415+00:00", "meta": {"OBJECT_NAME": "FENGYUN 1C DEB", "OBJECT_ID": "1999-025BBA", "EPOCH": "2025-12-13T13:29:46.183776", "MEAN_MOTION": 14.66901873, "ECCENTRICITY": 0.01962656, "INCLINATION": 99.0001, "RA_OF_ASC_NODE": 103.6238, "ARG_OF_PERICENTER": 159.3773, "MEAN_ANOMALY": 201.5492, "EPHEMERIS_TYPE": 0, "CLASSIFICATION_TYPE": "U", "NORAD_CAT_ID": 30960, "ELEMENT_SET_NO": 999, "REV_AT_EPOCH": 98710, "BSTAR": 0.0016999508, "MEAN_MOTION_DOT": 0.00012649, "MEAN_MOTION_DDOT": 0}, "tle": {"line1": "1 30960U 99025BBA 25347.56234009  .00012649  00000+0  17000-2 0  9994", "line2": "2 30960  99.0001 103.6238 0196265 159.3773 201.5492 14.66901873987109"}}, "geometry": {"type": "Point", "coordinates": [-76.98102720168644, -14.602838048394336]}}]}